FLOCK 4BE-9             
1 60514U 24149AY  26064.52646754  .00019930  00000+0  54486-3 0  9994
2 60514  97.3835 148.0339 0001583 320.8669  39.2461 15.37411843 86378
FLOCK 4BE-6             
1 60516U 24149BA  26064.22189609  .00019187  00000+0  54120-3 0  9993
2 60516  97.3841 147.2598 0002310 313.4115  46.6936 15.36444505 86298
FLOCK 4BE-14            
1 60517U 24149BB  26064.22357186  .00021067  00000+0  57424-3 0  9991
2 60517  97.3755 147.3323 0003259 310.3813  49.7147 15.37489143 86335
FLOCK 4BE-1             
1 60518U 24149BC  26064.53400812  .00023235  00000+0  60728-3 0  9991
2 60518  97.3826 148.5756 0003055 303.1822  56.9130 15.38768693 86414
FLOCK 4BE-28            
1 60519U 24149BD  26064.17608411  .00028384  00000+0  69405-3 0  9998
2 60519  97.3790 148.6377 0003530 306.0671  54.0248 15.40763356 86409
FLOCK 4BE-35            
1 60558U 24149CU  26064.49375907  .00102635  00000+0  23224-2 0  9997
2 60558  97.3796 147.6831 0004546 272.5809  87.4918 15.42743959 86357
FLOCK 4BE-5             
1 60559U 24149CV  26064.16949388  .00025347  00000+0  70561-3 0  9993
2 60559  97.3885 147.4105 0002496 314.9178  45.1864 15.36797845 86280
FLOCK 4BE-12            
1 60560U 24149CW  26064.20002101  .00113881  00000+0  23376-2 0  9995
2 60560  97.3766 148.0944 0005713 276.9806  83.0793 15.45584268 86373
FLOCK 4BE-3             
1 60561U 24149CX  26064.17563810  .00022232  00000+0  59594-3 0  9992
2 60561  97.3750 147.3406 0003135 301.4213  58.6725 15.37996257 86339
FLOCK 4BE-19            
1 60563U 24149CZ  26064.18865049  .00025849  00000+0  64623-3 0  9990
2 60563  97.3790 148.4418 0003241 306.9051  53.1898 15.40107565 86395
PELICAN-2               
1 62631U 25009Y   26064.24350730  .00093384  00000+0  22933-2 0  9993
2 62631  97.4033 154.4934 0005584 233.1270 126.9464 15.40305662 63559
PELICAN-3               
1 65315U 25188A   26063.67400564  .00050463  00000+0  12332-2 0  9993
2 65315  97.2250 141.2804 0002789 207.1167 152.9935 15.40657683 29221
PELICAN-4               
1 65316U 25188B   26064.20923844  .00009180  00000+0  22724-3 0  9992
2 65316  97.2328 141.9068 0004860 107.6033 252.5745 15.40639705 29305
